{
 "type": "FeatureCollection",
 "crs": {
  "type": "name",
  "properties": {
   "name": "EPSG:25830"
  }
 },
 "features": [
  {
   "type": "Feature",
   "id": "ES.SDGC.BU.4410205WJ0641S_part1",
   "properties": {
    "source": "modelo",
    "tipo": "building_parts",
    "original_id": "ES.SDGC.BU.4410205WJ0641S_part1",
    "BuildingPart@id": "ES.SDGC.BU.4410205WJ0641S_part1",
    "beginLifespanVersion": "2017-06-12T00:00:00",
    "conditionOfConstruction@nilReason": "other:unpopulated",
    "localId": "4410205WJ0641S_part1",
    "namespace": "ES.SDGC.BU",
    "addresses@href": "http://ovc.catastro.meh.es/INSPIRE/wfsAD.aspx?service=wfs&version=2&request=GetFeature&STOREDQUERIE_ID=GetadByRefcat&refcat=4410205WJ0641S&srsname=EPSG::25830",
    "cadastralParcels@href": "http://ovc.catastro.meh.es/INSPIRE/wfsCP.aspx?service=wfs&version=2&request=GetFeature&STOREDQUERIE_ID=GetParcel&refcat=4410205WJ0641S&srsname=EPSG::25830",
    "horizontalGeometryEstimatedAccuracy": "0.1",
    "horizontalGeometryReference": "footPrint",
    "referenceGeometry": "true",
    "numberOfFloorsAboveGround": "1",
    "heightBelowGround": "0",
    "numberOfFloorsBelowGround": "0",
    "area": 90.8,
    "use": null
   },
   "geometry": {
    "type": "Polygon",
    "coordinates": [
     [
      [
       504347.93,
       4360840.6
      ],
      [
       504337.32,
       4360840.94
      ],
      [
       504337.48,
       4360849.28
      ],
      [
       504341.83,
       4360849.28
      ],
      [
       504348.42,
       4360849.28
      ],
      [
       504348.42,
       4360846.88
      ],
      [
       504347.93,
       4360846.88
      ],
      [
       504347.93,
       4360840.6
      ]
     ]
    ]
   }
  },
  {
   "type": "Feature",
   "id": "ES.SDGC.BU.4410205WJ0641S_part2",
   "properties": {
    "source": "modelo",
    "tipo": "building_parts",
    "original_id": "ES.SDGC.BU.4410205WJ0641S_part2",
    "BuildingPart@id": "ES.SDGC.BU.4410205WJ0641S_part2",
    "beginLifespanVersion": "2017-06-12T00:00:00",
    "conditionOfConstruction@nilReason": "other:unpopulated",
    "localId": "4410205WJ0641S_part2",
    "namespace": "ES.SDGC.BU",
    "addresses@href": "http://ovc.catastro.meh.es/INSPIRE/wfsAD.aspx?service=wfs&version=2&request=GetFeature&STOREDQUERIE_ID=GetadByRefcat&refcat=4410205WJ0641S&srsname=EPSG::25830",
    "cadastralParcels@href": "http://ovc.catastro.meh.es/INSPIRE/wfsCP.aspx?service=wfs&version=2&request=GetFeature&STOREDQUERIE_ID=GetParcel&refcat=4410205WJ0641S&srsname=EPSG::25830",
    "horizontalGeometryEstimatedAccuracy": "0.1",
    "horizontalGeometryReference": "footPrint",
    "referenceGeometry": "true",
    "numberOfFloorsAboveGround": "2",
    "heightBelowGround": "0",
    "numberOfFloorsBelowGround": "0",
    "area": 74.18,
    "use": null
   },
   "geometry": {
    "type": "Polygon",
    "coordinates": [
     [
      [
       504337.53,
       4360851.34
      ],
      [
       504337.6,
       4360854.54
      ],
      [
       504341.87,
       4360854.46
      ],
      [
       504345.28,
       4360854.4
      ],
      [
       504345.44,
       4360855.22
      ],
      [
       504347.85,
       4360855.16
      ],
      [
       504354.49,
       4360854.99
      ],
      [
       504353.59,
       4360850.74
      ],
      [
       504348.42,
       4360850.7
      ],
      [
       504348.42,
       4360849.28
      ],
      [
       504341.83,
       4360849.28
      ],
      [
       504341.83,
       4360851.34
      ],
      [
       504337.53,
       4360851.34
      ]
     ]
    ]
   }
  },
  {
   "type": "Feature",
   "id": "ES.SDGC.BU.4410205WJ0641S_part3",
   "properties": {
    "source": "modelo",
    "tipo": "building_parts",
    "original_id": "ES.SDGC.BU.4410205WJ0641S_part3",
    "BuildingPart@id": "ES.SDGC.BU.4410205WJ0641S_part3",
    "beginLifespanVersion": "2017-06-12T00:00:00",
    "conditionOfConstruction@nilReason": "other:unpopulated",
    "localId": "4410205WJ0641S_part3",
    "namespace": "ES.SDGC.BU",
    "addresses@href": "http://ovc.catastro.meh.es/INSPIRE/wfsAD.aspx?service=wfs&version=2&request=GetFeature&STOREDQUERIE_ID=GetadByRefcat&refcat=4410205WJ0641S&srsname=EPSG::25830",
    "cadastralParcels@href": "http://ovc.catastro.meh.es/INSPIRE/wfsCP.aspx?service=wfs&version=2&request=GetFeature&STOREDQUERIE_ID=GetParcel&refcat=4410205WJ0641S&srsname=EPSG::25830",
    "horizontalGeometryEstimatedAccuracy": "0.1",
    "horizontalGeometryReference": "footPrint",
    "referenceGeometry": "true",
    "numberOfFloorsAboveGround": "1",
    "heightBelowGround": "0",
    "numberOfFloorsBelowGround": "0",
    "area": 26.52,
    "use": null
   },
   "geometry": {
    "type": "Polygon",
    "coordinates": [
     [
      [
       504352.78,
       4360846.88
      ],
      [
       504351.44,
       4360840.49
      ],
      [
       504347.93,
       4360840.6
      ],
      [
       504347.93,
       4360846.88
      ],
      [
       504348.42,
       4360846.88
      ],
      [
       504352.78,
       4360846.88
      ]
     ]
    ]
   }
  }
 ]
}