{
 "type": "FeatureCollection",
 "crs": {
  "type": "name",
  "properties": {
   "name": "EPSG:4326"
  }
 },
 "features": [
  {
   "type": "Feature",
   "id": "ES.SDGC.BU.4410205WJ0641S",
   "properties": {
    "source": "modelo",
    "tipo": "edificios",
    "original_id": "ES.SDGC.BU.4410205WJ0641S",
    "Building@id": "ES.SDGC.BU.4410205WJ0641S",
    "beginLifespanVersion": "2017-06-12T00:00:00",
    "conditionOfConstruction": "functional",
    "beginning": "1994-01-01T00:00:00",
    "end": "1994-01-01T00:00:00",
    "endLifespanVersion@nilReason": "other:unpopulated",
    "informationSystem": "https://www1.sedecatastro.gob.es/CYCBienInmueble/OVCListaBienes.aspx?rc1=4410205&rc2=WJ0641S",
    "reference": "4410205WJ0641S",
    "localId": "4410205WJ0641S",
    "namespace": "ES.SDGC.BU",
    "addresses@href": "http://ovc.catastro.meh.es/INSPIRE/wfsAD.aspx?service=wfs&version=2&request=GetFeature&STOREDQUERIE_ID=GetadByRefcat&refcat=4410205WJ0641S&srsname=EPSG::25830",
    "cadastralParcels@href": "http://ovc.catastro.meh.es/INSPIRE/wfsCP.aspx?service=wfs&version=2&request=GetFeature&STOREDQUERIE_ID=GetParcel&refcat=4410205WJ0641S&srsname=EPSG::25830",
    "horizontalGeometryEstimatedAccuracy": "0.1",
    "horizontalGeometryReference": "footPrint",
    "referenceGeometry": "true",
    "currentUse": "1_residential",
    "numberOfBuildingUnits": "1",
    "numberOfDwellings": "1",
    "numberOfFloorsAboveGround@nilReason": "other:unpopulated",
    "documentLink": "http://ovc.catastro.meh.es/OVCServWeb/OVCWcfLibres/OVCFotoFachada.svc/RecuperarFotoFachadaGet?ReferenciaCatastral=4410205WJ0641S",
    "format": "jpeg",
    "sourceStatus": "NotOfficial",
    "officialAreaReference": "grossFloorArea",
    "value": "266",
    "area": 191.5,
    "use": "1_residential"
   },
   "geometry": {
    "type": "Polygon",
    "coordinates": [
     [
      [
       -2.949575532471241,
       39.39713032151892
      ],
      [
       -2.949575519107826,
       39.39714888363866
      ],
      [
       -2.9496254577717735,
       39.397148905270605
      ],
      [
       -2.9496246240782753,
       39.397177739279286
      ],
      [
       -2.9495750343221694,
       39.39717699693895
      ],
      [
       -2.9495354321739726,
       39.39717643912464
      ],
      [
       -2.949533568666548,
       39.397183827123555
      ],
      [
       -2.949505580163296,
       39.39718327433587
      ],
      [
       -2.949428466643595,
       39.39718170901824
      ],
      [
       -2.949438946571825,
       39.39714341792568
      ],
      [
       -2.9494989893600634,
       39.39714308357269
      ],
      [
       -2.949498998585718,
       39.39713028832512
      ],
      [
       -2.9494990141783606,
       39.39710866255451
      ],
      [
       -2.9494483787250374,
       39.39710864056555
      ],
      [
       -2.9494639825415443,
       39.397051068711356
      ],
      [
       -2.949504745656115,
       39.397052077590864
      ],
      [
       -2.9496279640323397,
       39.39705519465337
      ],
      [
       -2.94962605180394,
       39.39713034340226
      ],
      [
       -2.949575532471241,
       39.39713032151892
      ]
     ]
    ]
   }
  }
 ]
}