{
 "type": "FeatureCollection",
 "crs": {
  "type": "name",
  "properties": {
   "name": "EPSG:25830"
  }
 },
 "features": [
  {
   "type": "Feature",
   "id": "ES.SDGC.BU.4410203WJ0641S",
   "properties": {
    "source": "modelo",
    "tipo": "vecinos",
    "original_id": "ES.SDGC.BU.4410203WJ0641S",
    "Building@id": "ES.SDGC.BU.4410203WJ0641S",
    "beginLifespanVersion": "2004-06-09T00:00:00",
    "conditionOfConstruction": "functional",
    "beginning": "1960-01-01T00:00:00",
    "end": "2000-01-01T00:00:00",
    "endLifespanVersion@nilReason": "other:unpopulated",
    "informationSystem": "https://www1.sedecatastro.gob.es/CYCBienInmueble/OVCListaBienes.aspx?rc1=4410203&rc2=WJ0641S",
    "reference": "4410203WJ0641S",
    "localId": "4410203WJ0641S",
    "namespace": "ES.SDGC.BU",
    "addresses@href": "http://ovc.catastro.meh.es/INSPIRE/wfsAD.aspx?service=wfs&version=2&request=GetFeature&STOREDQUERIE_ID=GetadByRefcat&refcat=4410203WJ0641S&srsname=EPSG::25830",
    "cadastralParcels@href": "http://ovc.catastro.meh.es/INSPIRE/wfsCP.aspx?service=wfs&version=2&request=GetFeature&STOREDQUERIE_ID=GetParcel&refcat=4410203WJ0641S&srsname=EPSG::25830",
    "horizontalGeometryEstimatedAccuracy": "0.1",
    "horizontalGeometryReference": "footPrint",
    "referenceGeometry": "true",
    "currentUse": "1_residential",
    "numberOfBuildingUnits": "1",
    "numberOfDwellings": "1",
    "numberOfFloorsAboveGround@nilReason": "other:unpopulated",
    "documentLink": "http://ovc.catastro.meh.es/OVCServWeb/OVCWcfLibres/OVCFotoFachada.svc/RecuperarFotoFachadaGet?ReferenciaCatastral=4410203WJ0641S",
    "format": "jpeg",
    "sourceStatus": "NotOfficial",
    "officialAreaReference": "grossFloorArea",
    "value": "219",
    "area": 136.24,
    "use": null
   },
   "geometry": {
    "type": "Polygon",
    "coordinates": [
     [
      [
       504359.8,
       4360866.78
      ],
      [
       504369.93,
       4360867.0
      ],
      [
       504368.34,
       4360860.27
      ],
      [
       504367.19,
       4360855.4
      ],
      [
       504363.0,
       4360855.27
      ],
      [
       504358.68,
       4360855.13
      ],
      [
       504357.05,
       4360855.1
      ],
      [
       504358.07,
       4360859.71
      ],
      [
       504355.62,
       4360860.35
      ],
      [
       504356.86,
       4360866.71
      ],
      [
       504359.8,
       4360866.78
      ]
     ]
    ]
   }
  },
  {
   "type": "Feature",
   "id": "ES.SDGC.BU.4410202WJ0641S",
   "properties": {
    "source": "modelo",
    "tipo": "vecinos",
    "original_id": "ES.SDGC.BU.4410202WJ0641S",
    "Building@id": "ES.SDGC.BU.4410202WJ0641S",
    "beginLifespanVersion": "2001-10-09T00:00:00",
    "conditionOfConstruction": "functional",
    "beginning": "1999-01-01T00:00:00",
    "end": "1999-01-01T00:00:00",
    "endLifespanVersion@nilReason": "other:unpopulated",
    "informationSystem": "https://www1.sedecatastro.gob.es/CYCBienInmueble/OVCListaBienes.aspx?rc1=4410202&rc2=WJ0641S",
    "reference": "4410202WJ0641S",
    "localId": "4410202WJ0641S",
    "namespace": "ES.SDGC.BU",
    "addresses@href": "http://ovc.catastro.meh.es/INSPIRE/wfsAD.aspx?service=wfs&version=2&request=GetFeature&STOREDQUERIE_ID=GetadByRefcat&refcat=4410202WJ0641S&srsname=EPSG::25830",
    "cadastralParcels@href": "http://ovc.catastro.meh.es/INSPIRE/wfsCP.aspx?service=wfs&version=2&request=GetFeature&STOREDQUERIE_ID=GetParcel&refcat=4410202WJ0641S&srsname=EPSG::25830",
    "horizontalGeometryEstimatedAccuracy": "0.1",
    "horizontalGeometryReference": "footPrint",
    "referenceGeometry": "true",
    "currentUse": "3_industrial",
    "numberOfBuildingUnits": "1",
    "numberOfDwellings": "0",
    "numberOfFloorsAboveGround@nilReason": "other:unpopulated",
    "documentLink": "http://ovc.catastro.meh.es/OVCServWeb/OVCWcfLibres/OVCFotoFachada.svc/RecuperarFotoFachadaGet?ReferenciaCatastral=4410202WJ0641S",
    "format": "jpeg",
    "sourceStatus": "NotOfficial",
    "officialAreaReference": "grossFloorArea",
    "value": "106",
    "area": 106.09,
    "use": null
   },
   "geometry": {
    "type": "Polygon",
    "coordinates": [
     [
      [
       504347.51,
       4360866.5
      ],
      [
       504356.86,
       4360866.71
      ],
      [
       504355.62,
       4360860.35
      ],
      [
       504354.49,
       4360854.99
      ],
      [
       504347.85,
       4360855.16
      ],
      [
       504345.44,
       4360855.22
      ],
      [
       504347.51,
       4360866.5
      ]
     ]
    ]
   }
  },
  {
   "type": "Feature",
   "id": "ES.SDGC.BU.4410213WJ0641S",
   "properties": {
    "source": "modelo",
    "tipo": "vecinos",
    "original_id": "ES.SDGC.BU.4410213WJ0641S",
    "Building@id": "ES.SDGC.BU.4410213WJ0641S",
    "beginLifespanVersion": "2001-10-09T00:00:00",
    "conditionOfConstruction": "functional",
    "beginning": "1995-01-01T00:00:00",
    "end": "1995-01-01T00:00:00",
    "endLifespanVersion@nilReason": "other:unpopulated",
    "informationSystem": "https://www1.sedecatastro.gob.es/CYCBienInmueble/OVCListaBienes.aspx?rc1=4410213&rc2=WJ0641S",
    "reference": "4410213WJ0641S",
    "localId": "4410213WJ0641S",
    "namespace": "ES.SDGC.BU",
    "addresses@href": "http://ovc.catastro.meh.es/INSPIRE/wfsAD.aspx?service=wfs&version=2&request=GetFeature&STOREDQUERIE_ID=GetadByRefcat&refcat=4410213WJ0641S&srsname=EPSG::25830",
    "cadastralParcels@href": "http://ovc.catastro.meh.es/INSPIRE/wfsCP.aspx?service=wfs&version=2&request=GetFeature&STOREDQUERIE_ID=GetParcel&refcat=4410213WJ0641S&srsname=EPSG::25830",
    "horizontalGeometryEstimatedAccuracy": "0.1",
    "horizontalGeometryReference": "footPrint",
    "referenceGeometry": "true",
    "currentUse": "3_industrial",
    "numberOfBuildingUnits": "1",
    "numberOfDwellings": "0",
    "numberOfFloorsAboveGround@nilReason": "other:unpopulated",
    "documentLink": "http://ovc.catastro.meh.es/OVCServWeb/OVCWcfLibres/OVCFotoFachada.svc/RecuperarFotoFachadaGet?ReferenciaCatastral=4410213WJ0641S",
    "format": "jpeg",
    "sourceStatus": "NotOfficial",
    "officialAreaReference": "grossFloorArea",
    "value": "188",
    "area": 190.08,
    "use": null
   },
   "geometry": {
    "type": "Polygon",
    "coordinates": [
     [
      [
       504330.2,
       4360866.12
      ],
      [
       504347.51,
       4360866.5
      ],
      [
       504345.44,
       4360855.22
      ],
      [
       504345.28,
       4360854.4
      ],
      [
       504341.87,
       4360854.46
      ],
      [
       504337.6,
       4360854.54
      ],
      [
       504333.96,
       4360854.6
      ],
      [
       504330.31,
       4360854.66
      ],
      [
       504330.2,
       4360866.12
      ]
     ]
    ]
   }
  }
 ]
}