{
 "type": "FeatureCollection",
 "crs": {
  "type": "name",
  "properties": {
   "name": "EPSG:25830"
  }
 },
 "features": [
  {
   "type": "Feature",
   "id": "ES.SDGC.BU.9999999XX9999X",
   "properties": {
    "source": "modelo",
    "tipo": "edificios",
    "original_id": "ES.SDGC.BU.9999999XX9999X",
    "Building@id": "ES.SDGC.BU.9999999XX9999X",
    "currentUse": "1_residential",
    "numberOfBuildingUnits": "2",
    "area": 114.0,
    "use": "1_residential"
   },
   "geometry": {
    "type": "Polygon",
    "coordinates": [
     [
      [
       470000.0,
       4340000.0
      ],
      [
       470012.0,
       4340000.0
      ],
      [
       470012.0,
       4340010.0
      ],
      [
       470000.0,
       4340010.0
      ],
      [
       470000.0,
       4340000.0
      ]
     ],
     [
      [
       470004.0,
       4340004.0
      ],
      [
       470007.0,
       4340004.0
      ],
      [
       470007.0,
       4340006.0
      ],
      [
       470004.0,
       4340006.0
      ],
      [
       470004.0,
       4340004.0
      ]
     ]
    ]
   }
  }
 ]
}