{
 "type": "FeatureCollection",
 "crs": {
  "type": "name",
  "properties": {
   "name": "EPSG:4326"
  }
 },
 "features": [
  {
   "type": "Feature",
   "id": "ES.SDGC.BU.9999999XX9999X",
   "properties": {
    "source": "modelo",
    "tipo": "edificios",
    "original_id": "ES.SDGC.BU.9999999XX9999X",
    "Building@id": "ES.SDGC.BU.9999999XX9999X",
    "currentUse": "1_residential",
    "numberOfBuildingUnits": "2",
    "area": 114.0,
    "use": "1_residential"
   },
   "geometry": {
    "type": "Polygon",
    "coordinates": [
     [
      [
       -3.347476228422393,
       39.208752549485084
      ],
      [
       -3.347337240318662,
       39.20875296394961
      ],
      [
       -3.347337684182728,
       39.208843072625726
      ],
      [
       -3.3474766724640643,
       39.208842658159874
      ],
      [
       -3.347476228422393,
       39.208752549485084
      ]
     ],
     [
      [
       -3.34743007664755,
       39.20878873112861
      ],
      [
       -3.3473953296038865,
       39.2087888347466
      ],
      [
       -3.3473954183915,
       39.208806856481715
      ],
      [
       -3.3474301654440435,
       39.20880675286366
      ],
      [
       -3.34743007664755,
       39.20878873112861
      ]
     ]
    ]
   }
  }
 ]
}