{
 "type": "FeatureCollection",
 "crs": {
  "type": "name",
  "properties": {
   "name": "EPSG:4326"
  }
 },
 "features": [
  {
   "type": "Feature",
   "id": "ES.SDGC.BU.9999999XX9998X",
   "properties": {
    "source": "modelo",
    "tipo": "vecinos",
    "original_id": "ES.SDGC.BU.9999999XX9998X",
    "Building@id": "ES.SDGC.BU.9999999XX9998X",
    "currentUse": "1_residential",
    "numberOfBuildingUnits": "2",
    "area": 36.0,
    "use": null
   },
   "geometry": {
    "type": "Polygon",
    "coordinates": [
     [
      [
       -3.347337240318662,
       39.20875296394961
      ],
      [
       -3.347267746265721,
       39.20875317111969
      ],
      [
       -3.3472680125306407,
       39.208807236325924
      ],
      [
       -3.3473375066368622,
       39.208807029155444
      ],
      [
       -3.347337240318662,
       39.20875296394961
      ]
     ]
    ]
   }
  },
  {
   "type": "Feature",
   "id": "ES.SDGC.BU.9999999XX9997X",
   "properties": {
    "source": "modelo",
    "tipo": "vecinos",
    "original_id": "ES.SDGC.BU.9999999XX9997X",
    "Building@id": "ES.SDGC.BU.9999999XX9997X",
    "currentUse": "1_residential",
    "numberOfBuildingUnits": "2",
    "area": 70.0,
    "use": null
   },
   "geometry": {
    "type": "Polygon",
    "coordinates": [
     [
      [
       -3.3475573048149125,
       39.20875230763754
      ],
      [
       -3.347476228422393,
       39.208752549485084
      ],
      [
       -3.3474766724640643,
       39.208842658159874
      ],
      [
       -3.347557748960187,
       39.208842416311555
      ],
      [
       -3.3475573048149125,
       39.20875230763754
      ]
     ]
    ]
   }
  }
 ]
}