{
 "type": "FeatureCollection",
 "crs": {
  "type": "name",
  "properties": {
   "name": "EPSG:25830"
  }
 },
 "features": [
  {
   "type": "Feature",
   "id": "ES.SDGC.BU.9999999XX9998X",
   "properties": {
    "source": "modelo",
    "tipo": "vecinos",
    "original_id": "ES.SDGC.BU.9999999XX9998X",
    "Building@id": "ES.SDGC.BU.9999999XX9998X",
    "currentUse": "1_residential",
    "numberOfBuildingUnits": "2",
    "area": 36.0,
    "use": null
   },
   "geometry": {
    "type": "Polygon",
    "coordinates": [
     [
      [
       470012.0,
       4340000.0
      ],
      [
       470018.0,
       4340000.0
      ],
      [
       470018.0,
       4340006.0
      ],
      [
       470012.0,
       4340006.0
      ],
      [
       470012.0,
       4340000.0
      ]
     ]
    ]
   }
  },
  {
   "type": "Feature",
   "id": "ES.SDGC.BU.9999999XX9997X",
   "properties": {
    "source": "modelo",
    "tipo": "vecinos",
    "original_id": "ES.SDGC.BU.9999999XX9997X",
    "Building@id": "ES.SDGC.BU.9999999XX9997X",
    "currentUse": "1_residential",
    "numberOfBuildingUnits": "2",
    "area": 70.0,
    "use": null
   },
   "geometry": {
    "type": "Polygon",
    "coordinates": [
     [
      [
       469993.0,
       4340000.0
      ],
      [
       470000.0,
       4340000.0
      ],
      [
       470000.0,
       4340010.0
      ],
      [
       469993.0,
       4340010.0
      ],
      [
       469993.0,
       4340000.0
      ]
     ]
    ]
   }
  }
 ]
}